{ "province_list" : [
{
    "name": "A Coruña",
    "display_name": "Coruña (A)",
    "zip": "15"
},
{
    "name": "Albacete",
    "display_name": "Albacete",
    "zip": "02"
},
{
    "name": "Alicante",
    "display_name": "Alicante/Alacant",
    "zip": "03"
},
{
    "name": "Almería",
    "display_name": "Almería",
    "zip": "04"
},
{
    "name": "Araba/Álava",
    "display_name": "Araba/Álava",
    "zip": "01"
},
{
    "name": "Asturias",
    "display_name": "Asturias",
    "zip": "33"
},
{
    "name": "Badajoz",
    "display_name": "Badajoz",
    "zip": "06"
},
{
    "name": "Barcelona",
    "display_name": "Barcelona",
    "zip": "08"
},
{
    "name": "Bizkaia",
    "display_name": "Bizkaia",
    "zip": "48"
},
{
    "name": "Burgos",
    "display_name": "Burgos",
    "zip": "09"
},
{
    "name": "Cantabria",
    "display_name": "Cantabria",
    "zip": "39"
},
{
    "name": "Castellón",
    "display_name": "Castellón/Castelló",
    "zip": "12"
},
{
    "name": "Ceuta",
    "display_name": "Ceuta",
    "zip": "51"
},
{
    "name": "Cuidad Real",
    "display_name": "Cuidad Real",
    "zip": "13"
},
{
    "name": "Cuenca",
    "display_name": "Cuenca",
    "zip": "16"
},
{
    "name": "Cáceres",
    "display_name": "Cáceres",
    "zip": "10"
},
{
    "name": "Cádiz",
    "display_name": "Cádiz",
    "zip": "11"
},
{
    "name": "Córdoba",
    "display_name": "Córdoba",
    "zip": "14"
},
{
    "name": "Gipuzkoa",
    "display_name": "Gipuzkoa",
    "zip": "20"
},
{
    "name": "Girona",
    "display_name": "Girona",
    "zip": "17"
},
{
    "name": "Granada",
    "display_name": "Granada",
    "zip": "18"
},
{
    "name": "Guadalajara",
    "display_name": "Guadalajara",
    "zip": "19"
},
{
    "name": "Huelva",
    "display_name": "Huelva",
    "zip": "21"
},
{
    "name": "Huesca",
    "display_name": "Huesca",
    "zip": "22"
},
{
    "name": "Illes Balears",
    "display_name": "Balears (Illes)",
    "zip": "07"
},
{
    "name": "Jaén",
    "display_name": "Jaén",
    "zip": "23"
},
{
    "name": "Lleida",
    "display_name": "Lleida",
    "zip": "25"
},
{
    "name": "La Rioja",
    "display_name": "Rioja (La)",
    "zip": "26"
},
{
    "name": "Las Palmas",
    "display_name": "Palmas (Las)",
    "zip": "35"
},
{
    "name": "León",
    "display_name": "León",
    "zip": "24"
},
{
    "name": "Lugo",
    "display_name": "Lugo",
    "zip": "27"
},
{
    "name": "Madrid",
    "display_name": "Madrid",
    "zip": "28"
},
{
    "name": "Melilla",
    "display_name": "Melilla",
    "zip": "52"
},
{
    "name": "Murcia",
    "display_name": "Murcia",
    "zip": "30"
},
{
    "name": "Málaga",
    "display_name": "Málaga",
    "zip": "29"
},
{
    "name": "Navarra",
    "display_name": "Navarra",
    "zip": "31"
},
{
    "name": "Ourense",
    "display_name": "Ourense",
    "zip": "32"
},
{
    "name": "Palencia",
    "display_name": "Palencia",
    "zip": "34"
},
{
    "name": "Pontevedra",
    "display_name": "Pontevedra",
    "zip": "36"
},
{
    "name": "Salamanca",
    "display_name": "Salamanca",
    "zip": "37"
},
{
    "name": "Santa Cruz de Tenerife",
    "display_name": "Santa Cruz de Tenerife",
    "zip": "38"
},
{
    "name": "Segovia",
    "display_name": "Segovia",
    "zip": "40"
},
{
    "name": "Sevilla",
    "display_name": "Sevilla",
    "zip": "41"
},
{
    "name": "Soria",
    "display_name": "Soria",
    "zip": "42"
},
{
    "name": "Tarragona",
    "display_name": "Tarragona",
    "zip": "43"
},
{
    "name": "Teruel",
    "display_name": "Teruel",
    "zip": "44"
},
{
    "name": "Toledo",
    "display_name": "Toledo",
    "zip": "45"
},
{
    "name": "Valencia",
    "display_name": "Valencia/València",
    "zip": "46"
},
{
    "name": "Valladolid",
    "display_name": "Valladolid",
    "zip": "47"
},
{
    "name": "Zamora",
    "display_name": "Zamora",
    "zip": "49"
},
{
    "name": "Zaragoza",
    "display_name": "Zaragoza",
    "zip": "50"
}
]
}